{
  "type": "FeatureCollection",
  "features": [
    {
      "type": "Feature",
      "properties": {
        "id": "berasia",
        "name": "Berasia",
        "district": "Bhopal",
        "state": "Madhya Pradesh",
        "panchayats": ["Nazirabad", "Parwalia", "Chandpur", "Kurana"]
      },
      "geometry": {
        "type": "Polygon",
        "coordinates": [
          [
            [77.35, 23.55],
            [77.55, 23.55],
            [77.58, 23.75],
            [77.38, 23.75],
            [77.35, 23.55]
          ]
        ]
      }
    },
    {
      "type": "Feature",
      "properties": {
        "id": "phanda",
        "name": "Phanda",
        "district": "Bhopal",
        "state": "Madhya Pradesh",
        "panchayats": ["Bilkisganj", "Ratibad", "Neelbad"]
      },
      "geometry": {
        "type": "Polygon",
        "coordinates": [
          [
            [77.20, 23.20],
            [77.38, 23.20],
            [77.38, 23.38],
            [77.20, 23.38],
            [77.20, 23.20]
          ]
        ]
      }
    },
    {
      "type": "Feature",
      "properties": {
        "id": "huzur",
        "name": "Huzur",
        "district": "Bhopal",
        "state": "Madhya Pradesh",
        "panchayats": ["Kolar", "Misrod", "Bagroda"]
      },
      "geometry": {
        "type": "Polygon",
        "coordinates": [
          [
            [77.40, 23.10],
            [77.62, 23.10],
            [77.62, 23.30],
            [77.40, 23.30],
            [77.40, 23.10]
          ]
        ]
      }
    },
    {
      "type": "Feature",
      "properties": {
        "id": "ashta",
        "name": "Ashta",
        "district": "Sehore",
        "state": "Madhya Pradesh",
        "panchayats": ["Jawar", "Kannod", "Siddiqganj"]
      },
      "geometry": {
        "type": "Polygon",
        "coordinates": [
          [
            [76.60, 22.90],
            [76.85, 22.90],
            [76.85, 23.15],
            [76.60, 23.15],
            [76.60, 22.90]
          ]
        ]
      }
    },
    {
      "type": "Feature",
      "properties": {
        "id": "sehore-block",
        "name": "Sehore",
        "district": "Sehore",
        "state": "Madhya Pradesh",
        "panchayats": ["Doraha", "Amlaha", "Shyampur"]
      },
      "geometry": {
        "type": "Polygon",
        "coordinates": [
          [
            [76.95, 23.10],
            [77.20, 23.10],
            [77.20, 23.35],
            [76.95, 23.35],
            [76.95, 23.10]
          ]
        ]
      }
    },
    {
      "type": "Feature",
      "properties": {
        "id": "ichhawar",
        "name": "Ichhawar",
        "district": "Sehore",
        "state": "Madhya Pradesh",
        "panchayats": ["Diwadiya", "Brijishnagar", "Nasrullaganj"]
      },
      "geometry": {
        "type": "Polygon",
        "coordinates": [
          [
            [76.90, 22.90],
            [77.15, 22.90],
            [77.15, 23.15],
            [76.90, 23.15],
            [76.90, 22.90]
          ]
        ]
      }
    },
    {
      "type": "Feature",
      "properties": {
        "id": "vidisha-block",
        "name": "Vidisha",
        "district": "Vidisha",
        "state": "Madhya Pradesh",
        "panchayats": ["Pathari", "Sanchi Road", "Haidergarh"]
      },
      "geometry": {
        "type": "Polygon",
        "coordinates": [
          [
            [77.70, 23.40],
            [77.95, 23.40],
            [77.95, 23.65],
            [77.70, 23.65],
            [77.70, 23.40]
          ]
        ]
      }
    },
    {
      "type": "Feature",
      "properties": {
        "id": "gyaraspur",
        "name": "Gyaraspur",
        "district": "Vidisha",
        "state": "Madhya Pradesh",
        "panchayats": ["Manora", "Gulabganj", "Gyaraspur Village"]
      },
      "geometry": {
        "type": "Polygon",
        "coordinates": [
          [
            [77.98, 23.60],
            [78.22, 23.60],
            [78.22, 23.82],
            [77.98, 23.82],
            [77.98, 23.60]
          ]
        ]
      }
    },
    {
      "type": "Feature",
      "properties": {
        "id": "basoda",
        "name": "Basoda",
        "district": "Vidisha",
        "state": "Madhya Pradesh",
        "panchayats": ["Ganj Basoda", "Bareth", "Tyonda"]
      },
      "geometry": {
        "type": "Polygon",
        "coordinates": [
          [
            [77.80, 23.75],
            [78.08, 23.75],
            [78.08, 23.98],
            [77.80, 23.98],
            [77.80, 23.75]
          ]
        ]
      }
    }
  ]
}
